OMNI-L1                 
1 52157U 22033A   24182.77734941  .00001452  00000+0  20306-3 0  9994
2 52157  97.8949 264.5607 0007071  91.0578 269.1444 14.79062537121438
ENMAP                   
1 52159U 22033C   24182.85177383  .00001184  00000+0  18362-3 0  9997
2 52159  97.9786 264.3906 0001513 108.3804 251.7569 14.74973323121062
ARCSAT-1                
1 52161U 22033E   24183.21342024  .00008994  00000+0  28496-3 0  9992
2 52161  97.3242 262.8964 0005838 266.8463  93.2111 15.32937730125263
ION SCV-005             
1 52163U 22033G   24183.08442259  .00332431  45959-4  81849-3 0  9994
2 52163  97.3413 304.0393 0010503 237.2328 122.7937 15.95930922127909
MP42                    
1 52169U 22033N   24182.81086744  .00068114  00000+0  90045-3 0  9998
2 52169  97.3233 270.8956 0006473 211.9146 148.1719 15.58100029125766
BRO-7                   
1 52174U 22033T   24183.17692544  .00022179  00000+0  53013-3 0  9990
2 52174  97.3263 266.9867 0008400 225.5242 134.5319 15.41470323125531
SUCHAI-2                
1 52192U 22033AM  24182.84600487  .00087947  00000+0  10785-2 0  9990
2 52192  97.3082 270.3687 0005141 213.7339 146.3592 15.60030602125812
GLOBAL-18               
1 52196U 22034B   24182.90132128  .00028876  00000+0  74982-3 0  9990
2 52196  52.9924  45.7709 0002205  39.9722 320.1443 15.38758761126613
GLOBAL-20               
1 52197U 22034C   24182.76678629  .00000169  00000+0  10968-4 0  9996
2 52197  52.9921  34.8412 0005922 199.1822 160.8963 15.50033707126751
GAOFEN-3 03             
1 52200U 22035A   24183.17910637  .00000162  00000+0  62507-4 0  9995
2 52200  98.4109 190.9139 0001500 109.6208 250.5143 14.42219770117653
DAQI 1                  
1 52257U 22039A   24183.14466592  .00000788  00000+0  18236-3 0  9997
2 52257  98.2106 120.6257 0000410 261.3658  98.7494 14.57773647117627
JILIN-1 GAOFEN 4A       
1 52388U 22046A   24183.18718031  .00019407  00000+0  86283-3 0  9997
2 52388  97.5027 270.1665 0016989  65.2306 295.0695 15.21419790119882
JILIN-1 GAOFEN 3D05     
1 52390U 22046C   24183.23578580  .00018545  00000+0  76363-3 0  9999
2 52390  97.4987 272.1954 0003003 175.4278 184.6987 15.24162778120059
JILIN-1 GAOFEN 3D07     
1 52392U 22046E   24183.03399560  .00019109  00000+0  83198-3 0  9999
2 52392  97.5056 272.7928 0003717 174.3383 185.7896 15.22263106120037
BRO-6                   
1 52422U 22047AE  24183.20401137  .00012565  00000+0  52663-3 0  9999
2 52422  97.3966 262.8720 0008273 116.2226 243.9862 15.23623922121243
JILIN-1 GAOFEN 3D27     
1 52444U 22048B   24183.20989605  .00018885  00000+0  74275-3 0  9999
2 52444  97.5986 261.8865 0010868  77.6855 282.5598 15.25651447119350
JILIN-1 GAOFEN 3D28     
1 52445U 22048C   24183.18853845  .00018823  00000+0  74100-3 0  9992
2 52445  97.5958 261.6492 0010626  78.3590 281.8840 15.25623240119352
PTD-3 (TYVAK-0125)      
1 52734U 22057C   24182.93798593  .00122736  00000+0  10549-2 0  9998
2 52734  97.5539 322.8859 0003552 114.9695 245.1935 15.68952797117555
OP15 FLT2 (TYVAK-0821)  
1 52735U 22057D   24182.88393211  .00122706  00000+0  14589-2 0  9996
2 52735  97.5597 314.2610 0003206 142.2187 217.9295 15.60730819116989
PLANETUM1               
1 52738U 22057G   24182.89266811  .00055625  00000+0  12693-2 0  9994
2 52738  97.5665 309.5420 0005190 112.1450 248.0348 15.42691367116682
CONNECTA T1.1           
1 52739U 22057H   24183.06489599  .00019355  00000+0  75495-3 0  9995
2 52739  97.5803 304.8073 0008988 116.8471 243.3687 15.25939401116321
OP15 FLT1 (TYVAK-0820)  
1 52741U 22057K   24182.90978566  .00116038  00000+0  16129-2 0  9991
2 52741  97.5728 314.1823 0003773 126.2586 233.9017 15.56587650116923
CENTAURI-5 (TYVAK-0212) 
1 52742U 22057L   24182.61829913  .00090940  00000+0  11480-2 0  9999
2 52742  97.5681 316.9043 0003933 119.5825 240.5823 15.59258859117126
VIGORIDE-3              
1 52760U 22057AE  24183.22706045  .00004622  00000+0  22954-3 0  9998
2 52760  97.5778 302.4569 0012107 102.0169 258.2422 15.18119108116204
ION SCV-006             
1 52761U 22057AF  24182.87836393  .00010164  00000+0  43645-3 0  9997
2 52761  97.5305 301.8999 0019802 142.3514 217.9112 15.22713168116244
SHERPA-AC1              
1 52763U 22057AH  24182.88456516  .00008730  00000+0  39509-3 0  9995
2 52763  97.5814 303.5575 0012056  98.7643 261.4958 15.21079498116232
PLATFORM-1              
1 52770U 22057AQ  24182.87081228  .00022844  00000+0  82563-3 0  9996
2 52770  97.5765 307.2897 0010958  77.9910 282.2557 15.28410179116506
OMNI-L2                 
1 52771U 22057AR  24183.21823325  .00011471  00000+0  13270-2 0  9990
2 52771  97.5233 280.0447 0010021 138.4165 221.7815 14.85645516114861
STEP CUBE LAB-II        
1 52897U 22065D   24183.14433131  .00001921  00000+0  40567-3 0  9991
2 52897  98.1224 323.8220 0010154 106.2917 253.9401 14.60438981106865
RANDEV                  
1 52898U 22065E   24183.15747469  .00002024  00000+0  42526-3 0  9997
2 52898  98.1218 323.9372 0009453 107.7524 252.4709 14.60617090106593
SNUGLITE-II             
1 52899U 22065F   24182.89082003  .00002397  00000+0  49905-3 0  9995
2 52899  98.1209 323.7718 0008998 108.9444 251.2732 14.60893506106268
MIMAN                   
1 52900U 22065G   24182.90050150  .00001398  00000+0  30232-3 0  9991
2 52900  98.1244 323.2768 0009005 104.0026 256.2176 14.59750882105851
SLINGSHOT 1             
1 52947U 22074D   24182.89131099  .00094319  00000+0  67426-3 0  9992
2 52947  44.9859  27.1118 0013255 223.9000 136.0848 15.72672471112365
STARLINK-4362           
1 53043U 22077A   24183.10838138  .00000156  00000+0  16711-4 0  9994
2 53043  97.6559   3.7492 0003087  60.2416 299.9115 15.01261503107705
LARES-2                 
1 53105U 22080A   24179.97074478  .00000033  00000+0  00000+0 0  9999
2 53105  70.1400 191.9866 0004974 136.3411 223.7666  6.38965272 45718
GREENCUBE               
1 53106U 22080B   24179.39627855 -.00000003  00000+0  00000+0 0  9997
2 53106  70.1314 188.9743 0007566 105.0209 255.1288  6.42557731 45925
MTCUBE 2 (ROBUSTA 1F)   
1 53109U 22080E   24182.94616094 -.00000003  00000+0  00000+0 0  9998
2 53109  70.1159 187.3372 0007577  85.2863 274.8662  6.42584538 46046
STARLINK-4410           
1 53204U 22084R   24183.16169825  .00003621  00000+0  28630-3 0  9999
2 53204  97.6540 243.8012 0001667  84.7701 275.3714 15.01272604107199
COSMOS 2558             
1 53323U 22089A   24182.93885813  .00028313  00000+0  84508-3 0  9993
2 53323  97.2445 280.1568 0006114 114.2357 245.9526 15.34569562107348
TECMS                   
1 53346U 22090A   24183.18325761  .00007265  00000+0  33016-3 0  9990
2 53346  97.3974 256.8691 0004008  67.2087 292.9572 15.21043717105969
2022-096B               
1 53371U 22096B   24183.18354629  .00080895  00000+0  96345-3 0  9993
2 53371  97.3889  99.6821 0003509 117.9834 242.1778 15.60831694106247
2022-096C               
1 53372U 22096C   24183.16140713  .00070925  00000+0  91757-3 0  9994
2 53372  97.3862  99.0148 0002825 121.8894 238.2637 15.58685504106182
KAI-1 (RS26S)           
1 53378U 22096J   24182.42928194  .00178153  00000+0  11763-2 0  9995
2 53378  97.3929 102.1727 0005679 123.9571 236.2234 15.75059302106312
RESHUCUBE (RS8S)        
1 53382U 22096N   24183.21607413  .00413570  66807-4  13159-2 0  9994
2 53382  97.3838 104.8233 0008140 134.3231 225.8711 15.91080930106562
SIREN (RS30S)           
1 53384U 22096Q   24183.05831652  .01433399  14613-2  14527-2 0  9990
2 53384  97.3715 105.9378 0009454 156.1114 204.0610 16.11222911106625
DONGPO 04               
1 53451U 22098H   24183.21750883  .00019115  00000+0  76569-3 0  9993
2 53451  97.5359 283.6164 0005761  76.4244 283.7635 15.25073897104628
DONGPO 02               
1 53452U 22098J   24183.20789737  .00019072  00000+0  76482-3 0  9999
2 53452  97.5240 282.6883 0006044  74.4379 285.7526 15.25035572104626
DONGPO 01               
1 53453U 22098K   24183.20267629  .00019017  00000+0  76351-3 0  9995
2 53453  97.5297 283.1622 0005662  71.0875 289.0976 15.24997658104622
STARLINK-4400           
1 53468U 22099D   24182.92317014  .00001349  00000+0  10957-3 0  9993
2 53468  97.6544 303.5658 0000792 100.0246 260.1068 15.01260730103444
STARLINK-4621           
1 53676U 22105AE  24183.19942330 -.00000861  00000+0 -62488-4 0  9994
2 53676  97.6543  63.8295 0004189  90.1514 270.0190 15.01241735101020
SHERPA-LTC2             
1 53754U 22107BG  24182.74003603  .00008052  00000+0  45056-3 0  9993
2 53754  53.2377 348.2408 0445358  39.2001 324.0349 14.57006001 97584
CENTISPACE-1 S3         
1 53757U 22108A   24183.16645381  .00001130  00000+0  27663-3 0  9993
2 53757  53.5322 132.4645 0008535 236.1159 123.9004 14.59243332 96901
CENTISPACE-1 S4         
1 53758U 22108B   24183.19738779  .00001339  00000+0  31886-3 0  9994
2 53758  53.5296 132.4585 0008237 219.6817 140.3555 14.59497838 96907
BLUEWALKER 3            
1 53807U 22111AL  24182.55506296  .00008419  00000+0  33197-3 0  9992
2 53807  53.2329 132.0113 0009636 127.0660 233.1223 15.26379177100270
YUNHAI-1 03             
1 53877U 22115A   24183.23400597  .00000589  00000+0  23077-3 0  9992
2 53877  98.5209 180.5657 0001488  40.8058 319.3238 14.33040224 92983
SELFIESAT               
1 53951U 22057BC  24182.89837130  .00134433  00000+0  17226-2 0  9992
2 53951  97.5671 313.7090 0003155 125.0189 235.1363 15.58710923116926
CENTISPACE-1 S5         
1 54020U 22126A   24183.19810739  .00001546  00000+0  35950-3 0  9990
2 54020  54.9972 192.4123 0011019 260.2026  99.7722 14.59765127 92331
CENTISPACE-1 S6         
1 54021U 22126B   24183.18377773  .00000619  00000+0  16704-3 0  9992
2 54021  54.9974 192.3426 0012529 263.3955  96.5611 14.59704630 92324
OTB-3-GAZELLE           
1 54023U 22127A   24182.92753683  .00000414  00000+0  13869-3 0  9996
2 54023  98.3429 176.9252 0013145 184.4187 175.6889 14.42123404 91100
